0 FENGYUN 1C DEB
1 33737U 99025DJA 13283.66658909  .00000592  00000-0  44959-3 0  7217
2 33737 098.4036 073.6196 0144958 112.9189 018.7276 13.92343404266928
0 FENGYUN 1C DEB
1 33737U 99025DJA 13285.67789791  .00000633  00000-0  47880-3 0  7227
2 33737 098.4037 075.4452 0144823 107.3651 020.2551 13.92344815267200
0 FENGYUN 1C DEB
1 33737U 99025DJA 13287.68957125  .00001023  00000-0  75725-3 0  7232
2 33737 098.4041 077.2711 0144744 101.7962 023.6447 13.92347297267486
0 FENGYUN 1C DEB
1 33737U 99025DJA 13289.70175720  .00001168  00000-0  86063-3 0  7248
2 33737 098.4044 079.0976 0144650 096.2201 029.6316 13.92351353267762
0 FENGYUN 1C DEB
1 33737U 99025DJA 13291.71177924  .00001082  00000-0  79975-3 0  7250
2 33737 098.4046 080.9221 0144584 090.6533 024.7905 13.92356183268048
0 FENGYUN 1C DEB
1 33737U 99025DJA 13294.14334903  .00000884  00000-0  65834-3 0  7261
2 33737 098.4046 083.1295 0144454 083.9209 332.9849 13.92363749268389
0 FENGYUN 1C DEB
1 33737U 99025DJA 13296.15443616  .00000883  00000-0  65772-3 0  7277
2 33737 098.4042 084.9553 0144309 078.3396 333.5807 13.92368197268669
